ONEWEB-0340             
1 49206U 21083W   25270.29793287  .00000088  00000+0  19060-3 0  9992
2 49206  87.9213  27.6521 0001760  95.7873 264.3460 13.18684805195328
ONEWEB-0341             
1 49207U 21083X   25270.30452818  .00000112  00000+0  25011-3 0  9998
2 49207  87.9217  27.6639 0002159 106.6111 253.5259 13.18684984195349
ONEWEB-0342             
1 49208U 21083Y   25270.17177326  .00000141  00000+0  31513-3 0  9998
2 49208  87.9246 326.8789 0001789 100.4464 259.6871 13.20772949202060
ONEWEB-0343             
1 49209U 21083Z   25270.30039372  .00000141  00000+0  32366-3 0  9999
2 49209  87.9215  27.6502 0001968 115.7410 244.3925 13.18687754195399
ONEWEB-0344             
1 49210U 21083AA  25270.23096173 -.00000079  00000+0 -25157-3 0  9997
2 49210  87.9036  12.5168 0002134 106.3941 253.7423 13.13468718196372
ONEWEB-0345             
1 49211U 21083AB  25270.29868879  .00000116  00000+0  28380-3 0  9995
2 49211  87.9043  12.4581 0002121 107.8458 252.2902 13.13470407196390
ONEWEB-0346             
1 49212U 21083AC  25270.23359221  .00000109  00000+0  24357-3 0  9998
2 49212  87.9216  27.6863 0001944  81.1408 278.9944 13.18687765195320
ONEWEB-0348             
1 49213U 21083AD  25270.23805980  .00000125  00000+0  27560-3 0  9994
2 49213  87.9244 326.8771 0002488  93.2987 266.8431 13.20773657202105
